[{"OBJECT_NAME":"METEOR-M2 4","OBJECT_ID":"2024-039A","EPOCH":"2026-03-10T00:01:13.262016","MEAN_MOTION":14.22417348,"ECCENTRICITY":0.0008181,"INCLINATION":98.6907,"RA_OF_ASC_NODE":29.6041,"ARG_OF_PERICENTER":95.5481,"MEAN_ANOMALY":264.6631,"EPHEMERIS_TYPE":0,"CLASSIFICATION_TYPE":"U","NORAD_CAT_ID":59051,"ELEMENT_SET_NO":999,"REV_AT_EPOCH":10516,"BSTAR":5.4288673e-5,"MEAN_MOTION_DOT":7.7e-7,"MEAN_MOTION_DDOT":0},{"OBJECT_NAME":"CZ-6A DEB","OBJECT_ID":"2022-151AFA","EPOCH":"2026-03-08T07:29:38.362848","MEAN_MOTION":14.23547186,"ECCENTRICITY":0.00079912,"INCLINATION":98.8219,"RA_OF_ASC_NODE":100.0837,"ARG_OF_PERICENTER":9.8781,"MEAN_ANOMALY":350.2553,"EPHEMERIS_TYPE":0,"CLASSIFICATION_TYPE":"U","NORAD_CAT_ID":56626,"ELEMENT_SET_NO":999,"REV_AT_EPOCH":14960,"BSTAR":0.00044191347,"MEAN_MOTION_DOT":9.61e-6,"MEAN_MOTION_DDOT":0}]
